NORAD_CAT_ID,OBJECT_NAME,OBJECT_TYPE,EPOCH,MEAN_MOTION,ECCENTRICITY,INCLINATION,RA_OF_ASC_NODE,ARG_OF_PERICENTER,MEAN_ANOMALY,BSTAR,MEAN_MOTION_DOT,MEAN_MOTION_DDOT,TLE_LINE0,TLE_LINE1,TLE_LINE2,SEMIMAJOR_AXIS,PERIOD,APOGEE,PERIGEE,DECAYED
56479.0,STARLINK-6044,PAYLOAD,2023-11-06 21:35:54,14.9834783,0.0002577,69.9989,117.0095,260.8251,99.2616,-0.00025224,-3.103e-05,0.0,0 STARLINK-6044,1 56479U 23064AH  23310.89993372 -.00003103  00000-0 -25224-3 0  9992,2 56479  69.9989 117.0095 0002577 260.8251  99.2616 14.98347830 27853,6950.138,96.106,573.794,570.212,0.0
56479.0,STARLINK-6044,PAYLOAD,2023-11-07 12:01:07,14.98326026,0.0002781,69.9993,115.4946,270.2581,89.826,-0.00010094,-1.297e-05,0.0,0 STARLINK-6044,1 56479U 23064AH  23311.50078495 -.00001297  00000-0 -10094-3 0  9992,2 56479  69.9993 115.4946 0002781 270.2581  89.8260 14.98326026 28308,6950.205,96.107,574.003,570.137,0.0
56479.0,STARLINK-6044,PAYLOAD,2023-11-07 13:37:15,14.98344199,0.0002716,69.9992,115.3265,270.627,89.4578,-0.00041392,-5.03e-05,0.0,0 STARLINK-6044,1 56479U 23064AH  23311.56754383 -.00005030  00000-0 -41392-3 0  9999,2 56479  69.9992 115.3265 0002716 270.6270  89.4578 14.98344199 27956,6950.149,96.106,573.902,570.126,0.0
56479.0,STARLINK-6044,PAYLOAD,2023-11-08 04:02:27,14.98353782,0.0002961,70.0,113.8097,277.3922,82.69,-0.00052895,-6.402e-05,0.0,0 STARLINK-6044,1 56479U 23064AH  23312.16837807 -.00006402  00000-0 -52895-3 0  9993,2 56479  70.0000 113.8097 0002961 277.3922  82.6900 14.98353782 28408,6950.119,96.105,574.042,569.926,0.0
56479.0,STARLINK-6044,PAYLOAD,2023-11-08 12:03:08,14.98327268,0.0003042,69.9992,112.9687,269.1314,90.9496,-1.0085e-05,-2.13e-06,0.0,0 STARLINK-6044,1 56479U 23064AH  23312.50218272 -.00000213  00000-0 -10085-4 0  9990,2 56479  69.9992 112.9687 0003042 269.1314  90.9496 14.98327268 28452,6950.201,96.107,574.181,569.952,0.0
56479.0,STARLINK-6044,PAYLOAD,2023-11-08 13:39:16,14.98328174,0.0002908,69.9996,112.8011,266.977,93.1056,6.2315e-06,-1.9e-07,0.0,0 STARLINK-6044,1 56479U 23064AH  23312.56894194 -.00000019  00000-0  62315-5 0  9996,2 56479  69.9996 112.8011 0002908 266.9770  93.1056 14.98328174 28103,6950.199,96.107,574.085,570.042,0.0
56479.0,STARLINK-6044,PAYLOAD,2023-11-08 20:03:48,14.98327176,0.0002845,69.9996,112.1271,269.3958,90.6875,-2.4496e-06,-1.22e-06,0.0,0 STARLINK-6044,1 56479U 23064AH  23312.83598315 -.00000122  00000-0 -24496-5 0  9996,2 56479  69.9996 112.1271 0002845 269.3958  90.6875 14.98327176 28145,6950.202,96.107,574.044,570.089,0.0
56479.0,STARLINK-6044,PAYLOAD,2023-11-09 04:04:28,14.98347458,0.0003122,70.0003,111.2852,273.8111,86.2691,-0.0002585,-3.177e-05,0.0,0 STARLINK-6044,1 56479U 23064AH  23313.16977507 -.00003177  00000-0 -25850-3 0  9993,2 56479  70.0003 111.2852 0003122 273.8111  86.2691 14.98347458 28559,6950.139,96.106,574.174,569.834,0.0
56479.0,STARLINK-6044,PAYLOAD,2023-11-09 12:05:09,14.98327085,0.0003104,69.9991,110.444,272.1517,87.9287,9.1907e-05,1.004e-05,0.0,0 STARLINK-6044,1 56479U 23064AH  23313.50358062  .00001004  00000-0  91907-4 0  9992,2 56479  69.9991 110.4440 0003104 272.1517  87.9287 14.98327085 28607,6950.202,96.107,574.224,569.91,0.0
56479.0,STARLINK-6044,PAYLOAD,2023-11-09 13:41:17,14.98327171,0.0003079,69.9992,110.2757,270.5273,89.5533,9.2627e-05,1.012e-05,0.0,0 STARLINK-6044,1 56479U 23064AH  23313.57034054  .00001012  00000-0  92627-4 0  9990,2 56479  69.9992 110.2757 0003079 270.5273  89.5533 14.98327171 28258,6950.202,96.107,574.207,569.927,0.0
56479.0,STARLINK-6044,PAYLOAD,2023-11-09 20:05:49,14.98343525,0.0002945,69.9993,109.6027,268.2208,91.8614,-0.00013461,-1.699e-05,0.0,0 STARLINK-6044,1 56479U 23064AH  23313.83737539 -.00001699  00000-0 -13461-3 0  9998,2 56479  69.9993 109.6027 0002945 268.2208  91.8614 14.98343525 28655,6950.151,96.106,574.063,569.969,0.0
56479.0,STARLINK-6044,PAYLOAD,2023-11-10 04:06:30,14.98328636,0.0003156,70.0,108.7608,271.3508,88.729,5.0132e-05,5.05e-06,0.0,0 STARLINK-6044,1 56479U 23064AH  23314.17118067  .00000505  00000-0  50132-4 0  9995,2 56479  70.0000 108.7608 0003156 271.3508  88.7290 14.98328636 28702,6950.197,96.107,574.256,569.869,0.0
56479.0,STARLINK-6044,PAYLOAD,2023-11-10 13:43:18,14.98325104,0.0003007,69.9993,107.751,270.5993,89.4821,-4.525e-05,-6.33e-06,0.0,0 STARLINK-6044,1 56479U 23064AH  23314.57174688 -.00000633  00000-0 -45250-4 0  9999,2 56479  69.9993 107.7510 0003007 270.5993  89.4821 14.98325104 28407,6950.208,96.107,574.163,569.983,0.0
56479.0,STARLINK-6044,PAYLOAD,2023-11-10 20:07:51,14.9832672,0.0003015,69.9993,107.0777,270.3384,89.7429,-3.9637e-05,-5.66e-06,0.0,0 STARLINK-6044,1 56479U 23064AH  23314.83878613 -.00000566  00000-0 -39637-4 0  9994,2 56479  69.9993 107.0777 0003015 270.3384  89.7429 14.98326720 28442,6950.203,96.107,574.164,569.973,0.0
56479.0,STARLINK-6044,PAYLOAD,2023-11-11 12:09:11,14.98332924,0.0003028,69.9994,105.3945,270.4411,89.6401,1.4935e-05,8.5e-07,0.0,0 STARLINK-6044,1 56479U 23064AH  23315.50638043  .00000085  00000-0  14935-4 0  9998,2 56479  69.9994 105.3945 0003028 270.4411  89.6401 14.98332924 28900,6950.184,96.107,574.153,569.944,0.0
56479.0,STARLINK-6044,PAYLOAD,2023-11-11 13:45:19,14.983331,0.0003029,69.9993,105.2263,270.4908,89.5904,1.6461e-05,1.03e-06,0.0,0 STARLINK-6044,1 56479U 23064AH  23315.57314015  .00000103  00000-0  16461-4 0  9992,2 56479  69.9993 105.2263 0003029 270.4908  89.5904 14.98333100 28558,6950.183,96.107,574.154,569.943,0.0
56479.0,STARLINK-6044,PAYLOAD,2023-11-11 20:09:51,14.98336257,0.0002957,69.9995,104.5531,269.1157,90.9664,3.9454e-05,3.78e-06,0.0,0 STARLINK-6044,1 56479U 23064AH  23315.84017673  .00000378  00000-0  39454-4 0  9993,2 56479  69.9995 104.5531 0002957 269.1157  90.9664 14.98336257 28599,6950.174,96.107,574.094,569.983,0.0
56479.0,STARLINK-6044,PAYLOAD,2023-11-12 13:47:20,14.98326998,0.0002927,69.9996,102.7014,272.527,87.5554,4.8934e-05,4.91e-06,0.0,0 STARLINK-6044,1 56479U 23064AH  23316.57454182  .00000491  00000-0  48934-4 0  9993,2 56479  69.9996 102.7014 0002927 272.5270  87.5554 14.98326998 28701,6950.202,96.107,574.101,570.033,0.0
56479.0,STARLINK-6044,PAYLOAD,2023-11-12 18:35:44,14.98328156,0.0002871,69.9998,102.1968,269.419,90.664,5.8138e-05,6.01e-06,0.0,0 STARLINK-6044,1 56479U 23064AH  23316.77482082  .00000601  00000-0  58138-4 0  9995,2 56479  69.9998 102.1968 0002871 269.4190  90.6640 14.98328156 29091,6950.199,96.107,574.059,570.068,0.0
56479.0,STARLINK-6044,PAYLOAD,2023-11-12 20:11:52,14.9832868,0.0002873,69.9998,102.0284,269.5531,90.5299,6.201e-05,6.47e-06,0.0,0 STARLINK-6044,1 56479U 23064AH  23316.84158039  .00000647  00000-0  62010-4 0  9999,2 56479  69.9998 102.0284 0002873 269.5531  90.5299 14.98328680 28745,6950.197,96.107,574.059,570.065,0.0
56479.0,STARLINK-6044,PAYLOAD,2023-11-13 12:13:12,14.98335589,0.0002894,69.9998,100.3449,270.9734,89.1094,-1.2911e-05,-2.47e-06,0.0,0 STARLINK-6044,1 56479U 23064AH  23317.50917713 -.00000247  00000-0 -12911-4 0  9998,2 56479  69.9998 100.3449 0002894 270.9734  89.1094 14.98335589 28847,6950.176,96.107,574.052,570.029,0.0
56479.0,STARLINK-6044,PAYLOAD,2023-11-14 02:38:25,14.9834382,0.0002926,69.9999,98.8299,266.5422,93.5402,-0.00017184,-2.143e-05,0.0,0 STARLINK-6044,1 56479U 23064AH  23318.11001288 -.00002143  00000-0 -17184-3 0  9990,2 56479  69.9999  98.8299 0002926 266.5422  93.5402 14.98343820 29292,6950.15,96.106,574.049,569.982,0.0
56479.0,STARLINK-6044,PAYLOAD,2023-11-14 12:15:14,14.9832706,0.0002885,69.9999,97.8201,271.7034,88.3794,-4.2322e-05,-5.98e-06,0.0,0 STARLINK-6044,1 56479U 23064AH  23318.51058114 -.00000598  00000-0 -42322-4 0  9999,2 56479  69.9999  97.8201 0002885 271.7034  88.3794 14.98327060 29356,6950.202,96.107,574.072,570.062,0.0
56479.0,STARLINK-6044,PAYLOAD,2023-11-14 15:27:30,14.98327653,0.0002884,69.9998,97.4834,272.3127,87.7701,-3.5255e-05,-5.14e-06,0.0,0 STARLINK-6044,1 56479U 23064AH  23318.64410073 -.00000514  00000-0 -35255-4 0  9994,2 56479  69.9998  97.4834 0002884 272.3127  87.7701 14.98327653 29014,6950.2,96.107,574.07,570.061,0.0
56479.0,STARLINK-6044,PAYLOAD,2023-11-15 12:17:14,14.98332257,0.0002865,69.9995,95.295,271.7328,88.3503,-8.2471e-06,-1.91e-06,0.0,0 STARLINK-6044,1 56479U 23064AH  23319.51197666 -.00000191  00000-0 -82471-5 0  9995,2 56479  69.9995  95.2950 0002865 271.7328  88.3503 14.98332257 29508,6950.186,96.107,574.042,570.06,0.0
56479.0,STARLINK-6044,PAYLOAD,2023-11-15 15:29:30,14.98333481,0.0002871,69.9994,94.9582,271.1352,88.9478,-4.261e-06,-1.44e-06,0.0,0 STARLINK-6044,1 56479U 23064AH  23319.64549546 -.00000144  00000-0 -42610-5 0  9996,2 56479  69.9994  94.9582 0002871 271.1352  88.9478 14.98333481 29161,6950.182,96.107,574.043,570.052,0.0
56479.0,STARLINK-6044,PAYLOAD,2023-11-16 09:06:59,14.98326435,0.0003041,69.9993,93.1062,271.0642,89.0169,3.9923e-05,3.83e-06,0.0,0 STARLINK-6044,1 56479U 23064AH  23320.37985792  .00000383  00000-0  39923-4 0  9990,2 56479  69.9993  93.1062 0003041 271.0642  89.0169 14.98326435 29277,6950.204,96.107,574.182,569.955,0.0
56479.0,STARLINK-6044,PAYLOAD,2023-11-17 02:44:28,14.98329825,0.0003013,69.9994,91.2541,269.5288,90.5526,-1.1333e-05,-2.28e-06,0.0,0 STARLINK-6044,1 56479U 23064AH  23321.11421779 -.00000228  00000-0 -11333-4 0  9998,2 56479  69.9994  91.2541 0003013 269.5288  90.5526 14.98329825 29748,6950.193,96.107,574.153,569.964,0.0
56479.0,STARLINK-6044,PAYLOAD,2023-11-17 12:21:16,14.98329081,0.0002957,69.9994,90.2441,269.0292,91.0529,-1.6105e-05,-2.85e-06,0.0,0 STARLINK-6044,1 56479U 23064AH  23321.51477846 -.00000285  00000-0 -16105-4 0  9993,2 56479  69.9994  90.2441 0002957 269.0292  91.0529 14.98329081 29442,6950.196,96.107,574.116,570.006,0.0
56479.0,STARLINK-6044,PAYLOAD,2023-11-17 18:45:49,14.98330075,0.0003006,69.9995,89.5715,270.4963,89.5852,-7.1288e-06,-1.78e-06,0.0,0 STARLINK-6044,1 56479U 23064AH  23321.78181767 -.00000178  00000-0 -71288-5 0  9991,2 56479  69.9995  89.5715 0003006 270.4963  89.5852 14.98330075 29485,6950.193,96.107,574.147,569.968,0.0
